YAOGAN6
1 34839U 09021A   18094.36770916  .00000444  00000-0  19680-4 0  9990
2 34839  97.1032 136.3226 0028759  10.5605 349.6232 15.26104781496982
